LEMUR-1                 
1 40044U 14033AL  26196.99254962  .00000775  00000+0  94706-4 0  9991
2 40044  97.7910 346.1644 0047662 345.2728  14.7096 14.85338235649740
LEMUR-2-GREENBERG       
1 42837U 17042N   26197.22248715  .00008626  00000+0  27999-3 0  9994
2 42837  97.3829  17.7330 0007235 255.1675 104.8765 15.32171891492838
LEMUR-2-ANDIS           
1 42838U 17042P   26196.98733141  .00013224  00000+0  37972-3 0  9991
2 42838  97.3680  17.7865 0007229 254.8432 105.2013 15.35945333492875
LEMUR-2-MONSON          
1 42839U 17042Q   26197.29488539  .00007128  00000+0  25749-3 0  9990
2 42839  97.4089  17.7318 0005377 240.1872 119.8833 15.28768947492610
LEMUR-2-FURIAUS         
1 42840U 17042R   26196.97469007  .00010380  00000+0  34726-3 0  9994
2 42840  97.3775  15.3762 0006032 326.8661  33.2202 15.31147084492613
LEMUR-2-PETERG          
1 42841U 17042S   26197.05385494  .00011626  00000+0  34405-3 0  9990
2 42841  97.3990  22.1561 0003361 216.1647 143.9370 15.35048749492867
LEMUR-2-DEMBITZ         
1 42842U 17042T   26196.47161280  .00008871  00000+0  29756-3 0  9992
2 42842  97.3825  17.9201 0005052 273.6984  86.3679 15.31114268492676
LEMUR-2-ZACHARY         
1 42845U 17042W   26197.27667502  .00030256  00000+0  48944-3 0  9994
2 42845  97.3568  29.5840 0002583 240.1471 119.9525 15.52782947493714
LEMUR-2-AMANDA-SVANTE   
1 48269U 21034B   26197.16739907  .00017874  00000+0  51162-3 0  9990
2 48269  97.5752 276.2525 0004619 140.8995 219.2583 15.35996622285509
LEMUR-2-SPECIAL-K       
1 48273U 21034F   26197.22303533  .00169731  00000+0  11202-2 0  9994
2 48273  97.5633 286.4062 0006278 212.8733 147.2141 15.75087247286244
LEMUR-2-EMBRIONOVIS     
1 56970U 23084AQ  26197.22080460  .00007568  00000+0  20299-3 0  9991
2 56970  97.6325 342.5548 0008437 202.2371 157.8508 15.38245588172149
LEMUR-2-DEVERILL-M-T    
1 57391U 23100F   26197.07491124  .00015273  00000+0  37141-3 0  9990
2 57391  99.4451 244.2087 0004689 293.4879  66.5868 15.41119232165690
LEMUR-2-BASS            
1 58259U 23174D   26197.18789286  .00009663  00000+0  21365-3 0  9993
2 58259  97.3848 282.3238 0007619  75.2260 284.9832 15.44014456149838
LEMUR-2-JK0903EM1407    
1 58336U 23174CJ  26197.21425151  .00015716  00000+0  25252-3 0  9996
2 58336  97.3926 288.5330 0003549  29.4194 330.7259 15.53102524150230
LEMUR-2-MJR092620       
1 58340U 23174CN  26197.29634208  .00010354  00000+0  21485-3 0  9991
2 58340  97.3977 287.8824 0005207  26.6352 333.5164 15.45887001150146
LEMUR-2-NIMBUS2000      
1 58899U 24022A   26197.11259930  .00012191  00000+0  29589-3 0  9993
2 58899  97.4075  47.4963 0008670  25.7184 334.4492 15.41139769136728
