{"fetched_at":"2026-07-16T17:46:10.611Z","source":"https://celestrak.org/NORAD/elements/gp.php?GROUP=spire&FORMAT=JSON","constellation":"spire","records":[{"OBJECT_NAME":"LEMUR-1","OBJECT_ID":"2014-033AL","EPOCH":"2026-07-15T23:49:16.287168","CLASSIFICATION_TYPE":"U","MEAN_MOTION":14.85338235,"ECCENTRICITY":0.00476629,"INCLINATION":97.791,"RA_OF_ASC_NODE":346.1644,"ARG_OF_PERICENTER":345.2728,"MEAN_ANOMALY":14.7096,"EPHEMERIS_TYPE":0,"NORAD_CAT_ID":40044,"ELEMENT_SET_NO":999,"REV_AT_EPOCH":64974,"BSTAR":0.000094705671,"MEAN_MOTION_DOT":0.00000775,"MEAN_MOTION_DDOT":0},{"OBJECT_NAME":"LEMUR-2-GREENBERG","OBJECT_ID":"2017-042N","EPOCH":"2026-07-16T05:20:22.889760","CLASSIFICATION_TYPE":"U","MEAN_MOTION":15.32171891,"ECCENTRICITY":0.00072355,"INCLINATION":97.3829,"RA_OF_ASC_NODE":17.733,"ARG_OF_PERICENTER":255.1675,"MEAN_ANOMALY":104.8765,"EPHEMERIS_TYPE":0,"NORAD_CAT_ID":42837,"ELEMENT_SET_NO":999,"REV_AT_EPOCH":49283,"BSTAR":0.0002799907,"MEAN_MOTION_DOT":0.00008626,"MEAN_MOTION_DDOT":0},{"OBJECT_NAME":"LEMUR-2-ANDIS","OBJECT_ID":"2017-042P","EPOCH":"2026-07-15T23:41:45.433824","CLASSIFICATION_TYPE":"U","MEAN_MOTION":15.35945333,"ECCENTRICITY":0.00072298,"INCLINATION":97.368,"RA_OF_ASC_NODE":17.7865,"ARG_OF_PERICENTER":254.8432,"MEAN_ANOMALY":105.2013,"EPHEMERIS_TYPE":0,"NORAD_CAT_ID":42838,"ELEMENT_SET_NO":999,"REV_AT_EPOCH":49287,"BSTAR":0.00037971781,"MEAN_MOTION_DOT":0.00013224,"MEAN_MOTION_DDOT":0},{"OBJECT_NAME":"LEMUR-2-MONSON","OBJECT_ID":"2017-042Q","EPOCH":"2026-07-16T07:04:38.097696","CLASSIFICATION_TYPE":"U","MEAN_MOTION":15.28768947,"ECCENTRICITY":0.00053771,"INCLINATION":97.4089,"RA_OF_ASC_NODE":17.7318,"ARG_OF_PERICENTER":240.1872,"MEAN_ANOMALY":119.8833,"EPHEMERIS_TYPE":0,"NORAD_CAT_ID":42839,"ELEMENT_SET_NO":999,"REV_AT_EPOCH":49261,"BSTAR":0.00025748926,"MEAN_MOTION_DOT":0.00007128,"MEAN_MOTION_DDOT":0},{"OBJECT_NAME":"LEMUR-2-FURIAUS","OBJECT_ID":"2017-042R","EPOCH":"2026-07-15T23:23:33.222048","CLASSIFICATION_TYPE":"U","MEAN_MOTION":15.31147084,"ECCENTRICITY":0.00060326,"INCLINATION":97.3775,"RA_OF_ASC_NODE":15.3762,"ARG_OF_PERICENTER":326.8661,"MEAN_ANOMALY":33.2202,"EPHEMERIS_TYPE":0,"NORAD_CAT_ID":42840,"ELEMENT_SET_NO":999,"REV_AT_EPOCH":49261,"BSTAR":0.00034726331,"MEAN_MOTION_DOT":0.0001038,"MEAN_MOTION_DDOT":0},{"OBJECT_NAME":"LEMUR-2-PETERG","OBJECT_ID":"2017-042S","EPOCH":"2026-07-16T01:17:33.066816","CLASSIFICATION_TYPE":"U","MEAN_MOTION":15.35048749,"ECCENTRICITY":0.00033618,"INCLINATION":97.399,"RA_OF_ASC_NODE":22.1561,"ARG_OF_PERICENTER":216.1647,"MEAN_ANOMALY":143.937,"EPHEMERIS_TYPE":0,"NORAD_CAT_ID":42841,"ELEMENT_SET_NO":999,"REV_AT_EPOCH":49286,"BSTAR":0.00034404918,"MEAN_MOTION_DOT":0.00011626,"MEAN_MOTION_DDOT":0},{"OBJECT_NAME":"LEMUR-2-DEMBITZ","OBJECT_ID":"2017-042T","EPOCH":"2026-07-15T11:19:07.345920","CLASSIFICATION_TYPE":"U","MEAN_MOTION":15.31114268,"ECCENTRICITY":0.00050522,"INCLINATION":97.3825,"RA_OF_ASC_NODE":17.9201,"ARG_OF_PERICENTER":273.6984,"MEAN_ANOMALY":86.3679,"EPHEMERIS_TYPE":0,"NORAD_CAT_ID":42842,"ELEMENT_SET_NO":999,"REV_AT_EPOCH":49267,"BSTAR":0.00029755612,"MEAN_MOTION_DOT":0.00008871,"MEAN_MOTION_DDOT":0},{"OBJECT_NAME":"LEMUR-2-ZACHARY","OBJECT_ID":"2017-042W","EPOCH":"2026-07-16T06:38:24.721728","CLASSIFICATION_TYPE":"U","MEAN_MOTION":15.52782947,"ECCENTRICITY":0.00025839,"INCLINATION":97.3568,"RA_OF_ASC_NODE":29.584,"ARG_OF_PERICENTER":240.1471,"MEAN_ANOMALY":119.9525,"EPHEMERIS_TYPE":0,"NORAD_CAT_ID":42845,"ELEMENT_SET_NO":999,"REV_AT_EPOCH":49371,"BSTAR":0.00048944179,"MEAN_MOTION_DOT":0.00030256,"MEAN_MOTION_DDOT":0},{"OBJECT_NAME":"LEMUR-2-AMANDA-SVANTE","OBJECT_ID":"2021-034B","EPOCH":"2026-07-16T04:01:03.279648","CLASSIFICATION_TYPE":"U","MEAN_MOTION":15.35996622,"ECCENTRICITY":0.00046191,"INCLINATION":97.5752,"RA_OF_ASC_NODE":276.2525,"ARG_OF_PERICENTER":140.8995,"MEAN_ANOMALY":219.2583,"EPHEMERIS_TYPE":0,"NORAD_CAT_ID":48269,"ELEMENT_SET_NO":999,"REV_AT_EPOCH":28550,"BSTAR":0.00051162493,"MEAN_MOTION_DOT":0.00017874,"MEAN_MOTION_DDOT":0},{"OBJECT_NAME":"LEMUR-2-SPECIAL-K","OBJECT_ID":"2021-034F","EPOCH":"2026-07-16T05:21:10.252512","CLASSIFICATION_TYPE":"U","MEAN_MOTION":15.75087247,"ECCENTRICITY":0.00062789,"INCLINATION":97.5633,"RA_OF_ASC_NODE":286.4062,"ARG_OF_PERICENTER":212.8733,"MEAN_ANOMALY":147.2141,"EPHEMERIS_TYPE":0,"NORAD_CAT_ID":48273,"ELEMENT_SET_NO":999,"REV_AT_EPOCH":28624,"BSTAR":0.0011202085,"MEAN_MOTION_DOT":0.00169731,"MEAN_MOTION_DDOT":0},{"OBJECT_NAME":"LEMUR-2-EMBRIONOVIS","OBJECT_ID":"2023-084AQ","EPOCH":"2026-07-16T05:17:57.517440","CLASSIFICATION_TYPE":"U","MEAN_MOTION":15.38245588,"ECCENTRICITY":0.00084375,"INCLINATION":97.6325,"RA_OF_ASC_NODE":342.5548,"ARG_OF_PERICENTER":202.2371,"MEAN_ANOMALY":157.8508,"EPHEMERIS_TYPE":0,"NORAD_CAT_ID":56970,"ELEMENT_SET_NO":999,"REV_AT_EPOCH":17214,"BSTAR":0.00020298695,"MEAN_MOTION_DOT":0.00007568,"MEAN_MOTION_DDOT":0},{"OBJECT_NAME":"LEMUR-2-DEVERILL-M-T","OBJECT_ID":"2023-100F","EPOCH":"2026-07-16T01:47:52.331136","CLASSIFICATION_TYPE":"U","MEAN_MOTION":15.41119232,"ECCENTRICITY":0.00046898,"INCLINATION":99.4451,"RA_OF_ASC_NODE":244.2087,"ARG_OF_PERICENTER":293.4879,"MEAN_ANOMALY":66.5868,"EPHEMERIS_TYPE":0,"NORAD_CAT_ID":57391,"ELEMENT_SET_NO":999,"REV_AT_EPOCH":16569,"BSTAR":0.00037141455,"MEAN_MOTION_DOT":0.00015273,"MEAN_MOTION_DDOT":0},{"OBJECT_NAME":"LEMUR-2-BASS","OBJECT_ID":"2023-174D","EPOCH":"2026-07-16T04:30:33.943104","CLASSIFICATION_TYPE":"U","MEAN_MOTION":15.44014456,"ECCENTRICITY":0.00076191,"INCLINATION":97.3848,"RA_OF_ASC_NODE":282.3238,"ARG_OF_PERICENTER":75.226,"MEAN_ANOMALY":284.9832,"EPHEMERIS_TYPE":0,"NORAD_CAT_ID":58259,"ELEMENT_SET_NO":999,"REV_AT_EPOCH":14983,"BSTAR":0.00021364854,"MEAN_MOTION_DOT":0.00009663,"MEAN_MOTION_DDOT":0},{"OBJECT_NAME":"LEMUR-2-JK0903EM1407","OBJECT_ID":"2023-174CJ","EPOCH":"2026-07-16T05:08:31.330464","CLASSIFICATION_TYPE":"U","MEAN_MOTION":15.53102524,"ECCENTRICITY":0.00035496,"INCLINATION":97.3926,"RA_OF_ASC_NODE":288.533,"ARG_OF_PERICENTER":29.4194,"MEAN_ANOMALY":330.7259,"EPHEMERIS_TYPE":0,"NORAD_CAT_ID":58336,"ELEMENT_SET_NO":999,"REV_AT_EPOCH":15023,"BSTAR":0.00025252204,"MEAN_MOTION_DOT":0.00015716,"MEAN_MOTION_DDOT":0},{"OBJECT_NAME":"LEMUR-2-MJR092620","OBJECT_ID":"2023-174CN","EPOCH":"2026-07-16T07:06:43.955712","CLASSIFICATION_TYPE":"U","MEAN_MOTION":15.45887001,"ECCENTRICITY":0.00052079,"INCLINATION":97.3977,"RA_OF_ASC_NODE":287.8824,"ARG_OF_PERICENTER":26.6352,"MEAN_ANOMALY":333.5164,"EPHEMERIS_TYPE":0,"NORAD_CAT_ID":58340,"ELEMENT_SET_NO":999,"REV_AT_EPOCH":15014,"BSTAR":0.00021484905,"MEAN_MOTION_DOT":0.00010354,"MEAN_MOTION_DDOT":0},{"OBJECT_NAME":"LEMUR-2-NIMBUS2000","OBJECT_ID":"2024-022A","EPOCH":"2026-07-16T02:42:08.579520","CLASSIFICATION_TYPE":"U","MEAN_MOTION":15.41139769,"ECCENTRICITY":0.000867,"INCLINATION":97.4075,"RA_OF_ASC_NODE":47.4963,"ARG_OF_PERICENTER":25.7184,"MEAN_ANOMALY":334.4492,"EPHEMERIS_TYPE":0,"NORAD_CAT_ID":58899,"ELEMENT_SET_NO":999,"REV_AT_EPOCH":13672,"BSTAR":0.00029589281,"MEAN_MOTION_DOT":0.00012191,"MEAN_MOTION_DDOT":0}]}
